{"type": "FeatureCollection", "features": [ {"type": "Feature", "properties": {"norad_id": 64902, "name": "CO3D 2", "group": "resource", "lat": 76.67995683649261, "lon": 37.987320493890024, "alt_km": 497.4280228334055, "timestamp": "2025-12-21T07:34:34.198509+00:00", "meta": {"OBJECT_NAME": "CO3D 2", "OBJECT_ID": "2025-156D", "EPOCH": "2025-12-20T21:45:07.205760", "MEAN_MOTION": 15.20216157, "ECCENTRICITY": 7.325e-05, "INCLINATION": 97.4344, "RA_OF_ASC_NODE": 71.0556, "ARG_OF_PERICENTER": 72.6815, "MEAN_ANOMALY": 287.4501, "EPHEMERIS_TYPE": 0, "CLASSIFICATION_TYPE": "U", "NORAD_CAT_ID": 64902, "ELEMENT_SET_NO": 999, "REV_AT_EPOCH": 2244, "BSTAR": 0.0008342963, "MEAN_MOTION_DOT": 0.00018044, "MEAN_MOTION_DDOT": 0}, "tle": {"line1": "1 64902U 25156D   25354.90633340  .00018044  00000+0  83430-3 0  9994", "line2": "2 64902  97.4344  71.0556 0000732  72.6815 287.4501 15.20216157 22448"}}, "geometry": {"type": "Point", "coordinates": [37.987320493890024, 76.67995683649261]}}, {"type": "Feature", "properties": {"norad_id": 64903, "name": "CO3D 1", "group": "resource", "lat": 75.90947167458488, "lon": 40.1124351986072, "alt_km": 497.42531321346723, "timestamp": "2025-12-21T07:34:34.198518+00:00", "meta": {"OBJECT_NAME": "CO3D 1", "OBJECT_ID": "2025-156E", "EPOCH": "2025-12-20T21:45:21.249216", "MEAN_MOTION": 15.20200953, "ECCENTRICITY": 9.1e-05, "INCLINATION": 97.4343, "RA_OF_ASC_NODE": 71.0557, "ARG_OF_PERICENTER": 78.3443, "MEAN_ANOMALY": 281.7894, "EPHEMERIS_TYPE": 0, "CLASSIFICATION_TYPE": "U", "NORAD_CAT_ID": 64903, "ELEMENT_SET_NO": 999, "REV_AT_EPOCH": 2244, "BSTAR": 0.00019236882, "MEAN_MOTION_DOT": 4.099e-05, "MEAN_MOTION_DDOT": 0}, "tle": {"line1": "1 64903U 25156E   25354.90649594  .00004099  00000+0  19237-3 0  9992", "line2": "2 64903  97.4343  71.0557 0000910  78.3443 281.7894 15.20200953 22446"}}, "geometry": {"type": "Point", "coordinates": [40.1124351986072, 75.90947167458488]}}, {"type": "Feature", "properties": {"norad_id": 66514, "name": "SENTINEL-6B", "group": "resource", "lat": 48.04738836494849, "lon": 174.2587359224845, "alt_km": 1335.4556361957466, "timestamp": "2025-12-21T07:34:34.198527+00:00", "meta": {"OBJECT_NAME": "SENTINEL-6B", "OBJECT_ID": "2025-264A", "EPOCH": "2025-12-12T06:01:21.428544", "MEAN_MOTION": 12.81479575, "ECCENTRICITY": 0.00078482, "INCLINATION": 66.0385, "RA_OF_ASC_NODE": 163.4531, "ARG_OF_PERICENTER": 270.1375, "MEAN_ANOMALY": 89.8741, "EPHEMERIS_TYPE": 0, "CLASSIFICATION_TYPE": "U", "NORAD_CAT_ID": 66514, "ELEMENT_SET_NO": 999, "REV_AT_EPOCH": 322, "BSTAR": 0.00018194989, "MEAN_MOTION_DOT": -1.9e-07, "MEAN_MOTION_DDOT": 0}, "tle": {"line1": "1 66514U 25264A   25346.25094246 -.00000019  00000+0  18195-3 0  9990", "line2": "2 66514  66.0385 163.4531 0007848 270.1375  89.8741 12.81479575  3220"}}, "geometry": {"type": "Point", "coordinates": [174.2587359224845, 48.04738836494849]}}]}